start=new Date('2023-01-01T00:00:00.000Z').valueOf();
sats=[{"COUNTRY_CODE":"US","ARG_OF_PERICENTER":"29.2841","MEAN_MOTION_DDOT":"0.0000000000000","RCS_SIZE":"LARGE","PERIOD":"95.436","BSTAR":"0.00050088000000","MEAN_MOTION":"15.08857002","OBJECT_ID":"2022-041AR","RA_OF_ASC_NODE":"285.4347","ELEMENT_SET_NO":"999","REF_FRAME":"TEME","ECCENTRICITY":"0.00030000","REV_AT_EPOCH":"3997","DECAY_DATE":null,"OBJECT_NAME":"STARLINK-3769","NORAD_CAT_ID":"52300","TLE_LINE2":"2 52300  53.2146 285.4347 0003000  29.2841 330.8319 15.08857002 39976","SITE":"AFETR","APOAPSIS":"541.769","MEAN_MOTION_DOT":"0.00007696","CENTER_NAME":"EARTH","LAUNCH_DATE":"2022-04-21","PERIAPSIS":"537.618","TLE_LINE1":"1 52300U 22041AR  22365.48837030  .00007696  00000-0  50088-3 0  9992","OBJECT_TYPE":"PAYLOAD","TIME_SYSTEM":"UTC","SEMIMAJOR_AXIS":"6917.828","EPOCH":"2022-12-31T11:43:15.193920","MEAN_ANOMALY":"330.8319","GP_ID":"221837597","FILE":"3727988","MEAN_ELEMENT_THEORY":"SGP4","INCLINATION":"53.2146","CLASSIFICATION_TYPE":"U","EPHEMERIS_TYPE":"0"},{"BSTAR":"0.00036718000000","OBJECT_ID":"2022-041AS","MEAN_MOTION":"15.08851259","ELEMENT_SET_NO":"999","RA_OF_ASC_NODE":"285.3542","MEAN_MOTION_DDOT":"0.0000000000000","ARG_OF_PERICENTER":"33.2275","COUNTRY_CODE":"US","RCS_SIZE":"LARGE","PERIOD":"95.437","TLE_LINE2":"2 52301  53.2172 285.3542 0002898  33.2275 326.8899 15.08851259 38753","SITE":"AFETR","APOAPSIS":"541.716","MEAN_MOTION_DOT":"0.00005562","REF_FRAME":"TEME","ECCENTRICITY":"0.00028980","DECAY_DATE":null,"REV_AT_EPOCH":"3875","NORAD_CAT_ID":"52301","OBJECT_NAME":"STARLINK-3768","TIME_SYSTEM":"UTC","SEMIMAJOR_AXIS":"6917.846","EPOCH":"2022-12-31T12:09:44.006112","MEAN_ANOMALY":"326.8899","CENTER_NAME":"EARTH","TLE_LINE1":"1 52301U 22041AS  22365.50675933  .00005562  00000-0  36718-3 0  9992","PERIAPSIS":"537.706","LAUNCH_DATE":"2022-04-21","OBJECT_TYPE":"PAYLOAD","CLASSIFICATION_TYPE":"U","EPHEMERIS_TYPE":"0","GP_ID":"221835846","FILE":"3727988","MEAN_ELEMENT_THEORY":"SGP4","INCLINATION":"53.2172"},{"MEAN_ANOMALY":"315.7409","SEMIMAJOR_AXIS":"6917.781","EPOCH":"2022-12-31T11:28:40.924416","TIME_SYSTEM":"UTC","OBJECT_TYPE":"PAYLOAD","LAUNCH_DATE":"2022-04-21","PERIAPSIS":"538.017","TLE_LINE1":"1 52302U 22041AT  22365.47825144  .00013908  00000-0  88944-3 0  9991","CENTER_NAME":"EARTH","EPHEMERIS_TYPE":"0","CLASSIFICATION_TYPE":"U","INCLINATION":"53.2160","MEAN_ELEMENT_THEORY":"SGP4","FILE":"3727988","GP_ID":"221836590","RA_OF_ASC_NODE":"275.4654","ELEMENT_SET_NO":"999","MEAN_MOTION":"15.08872514","OBJECT_ID":"2022-041AT","BSTAR":"0.00088944000000","PERIOD":"95.435","RCS_SIZE":"LARGE","COUNTRY_CODE":"US","ARG_OF_PERICENTER":"44.3772","MEAN_MOTION_DDOT":"0.0000000000000","MEAN_MOTION_DOT":"0.00013908","TLE_LINE2":"2 52302  53.2160 275.4654 0002355  44.3772 315.7409 15.08872514 38883","SITE":"AFETR","APOAPSIS":"541.275","OBJECT_NAME":"STARLINK-3564","NORAD_CAT_ID":"52302","REV_AT_EPOCH":"3888","DECAY_DATE":null,"ECCENTRICITY":"0.00023550","REF_FRAME":"TEME"},{"MEAN_MOTION_DOT":"0.00008491","APOAPSIS":"541.012","TLE_LINE2":"2 52303  53.2163 283.9271 0001961  29.6129 330.4974 15.08869592 40022","SITE":"AFETR","NORAD_CAT_ID":"52303","OBJECT_NAME":"STARLINK-3742","DECAY_DATE":null,"REV_AT_EPOCH":"4002","ECCENTRICITY":"0.00019610","REF_FRAME":"TEME","ELEMENT_SET_NO":"999","RA_OF_ASC_NODE":"283.9271","OBJECT_ID":"2022-041AU","MEAN_MOTION":"15.08869592","BSTAR":"0.00055049000000","PERIOD":"95.436","RCS_SIZE":"LARGE","MEAN_MOTION_DDOT":"0.0000000000000","COUNTRY_CODE":"US","ARG_OF_PERICENTER":"29.6129","EPHEMERIS_TYPE":"0","CLASSIFICATION_TYPE":"U","INCLINATION":"53.2163","MEAN_ELEMENT_THEORY":"SGP4","FILE":"3728081","GP_ID":"221891069","MEAN_ANOMALY":"330.4974","SEMIMAJOR_AXIS":"6917.790","EPOCH":"2022-12-31T19:45:27.694944","TIME_SYSTEM":"UTC","OBJECT_TYPE":"PAYLOAD","TLE_LINE1":"1 52303U 22041AU  22365.82323721  .00008491  00000-0  55049-3 0  9996","PERIAPSIS":"538.298","LAUNCH_DATE":"2022-04-21","CENTER_NAME":"EARTH"},{"NORAD_CAT_ID":"52304","OBJECT_NAME":"STARLINK-3744","DECAY_DATE":null,"REV_AT_EPOCH":"3888","ECCENTRICITY":"0.00027010","REF_FRAME":"TEME","MEAN_MOTION_DOT":"0.00005253","TLE_LINE2":"2 52304  53.2182 275.4906 0002701  31.5313 328.5841 15.08857651 38880","APOAPSIS":"541.560","SITE":"AFETR","PERIOD":"95.436","RCS_SIZE":"LARGE","MEAN_MOTION_DDOT":"0.0000000000000","COUNTRY_CODE":"US","ARG_OF_PERICENTER":"31.5313","ELEMENT_SET_NO":"999","RA_OF_ASC_NODE":"275.4906","MEAN_MOTION":"15.08857651","OBJECT_ID":"2022-041AV","BSTAR":"0.00034773000000","INCLINATION":"53.2182","MEAN_ELEMENT_THEORY":"SGP4","FILE":"3727988","GP_ID":"221837098","EPHEMERIS_TYPE":"0","CLASSIFICATION_TYPE":"U","OBJECT_TYPE":"PAYLOAD","TLE_LINE1":"1 52304U 22041AV  22365.47455890  .00005253  00000-0  34773-3 0  9995","PERIAPSIS":"537.823","LAUNCH_DATE":"2022-04-21","CENTER_NAME":"EARTH","MEAN_ANOMALY":"328.5841","SEMIMAJOR_AXIS":"6917.826","EPOCH":"2022-12-31T11:23:21.888960","TIME_SYSTEM":"UTC"},{"CENTER_NAME":"EARTH","PERIAPSIS":"538.299","TLE_LINE1":"1 52305U 22041AW  22365.48564827  .00010265  00000-0  66170-3 0  9993","LAUNCH_DATE":"2022-04-21","OBJECT_TYPE":"PAYLOAD","TIME_SYSTEM":"UTC","SEMIMAJOR_AXIS":"6917.808","EPOCH":"2022-12-31T11:39:20.010528","MEAN_ANOMALY":"312.3700","GP_ID":"221836346","FILE":"3727988","MEAN_ELEMENT_THEORY":"SGP4","INCLINATION":"53.2144","CLASSIFICATION_TYPE":"U","EPHEMERIS_TYPE":"0","MEAN_MOTION_DDOT":"0.0000000000000","COUNTRY_CODE":"US","ARG_OF_PERICENTER":"47.7460","RCS_SIZE":"LARGE","PERIOD":"95.436","BSTAR":"0.00066170000000","MEAN_MOTION":"15.08863579","OBJECT_ID":"2022-041AW","ELEMENT_SET_NO":"999","RA_OF_ASC_NODE":"285.4455","REF_FRAME":"TEME","ECCENTRICITY":"0.00019860","DECAY_DATE":null,"REV_AT_EPOCH":"3875","NORAD_CAT_ID":"52305","OBJECT_NAME":"STARLINK-3724","TLE_LINE2":"2 52305  53.2144 285.4455 0001986  47.7460 312.3700 15.08863579 38752","APOAPSIS":"541.047","SITE":"AFETR","MEAN_MOTION_DOT":"0.00010265"},{"BSTAR":"-0.00023927000000","RA_OF_ASC_NODE":"274.0093","ELEMENT_SET_NO":"999","OBJECT_ID":"2022-041AX","MEAN_MOTION":"15.08856814","COUNTRY_CODE":"US","ARG_OF_PERICENTER":"36.1664","MEAN_MOTION_DDOT":"0.0000000000000","PERIOD":"95.436","RCS_SIZE":"LARGE","SITE":"AFETR","TLE_LINE2":"2 52306  53.2152 274.0093 0002073  36.1664 323.9468 15.08856814 40150","APOAPSIS":"541.128","MEAN_MOTION_DOT":"-0.00004096","ECCENTRICITY":"0.00020730","REF_FRAME":"TEME","OBJECT_NAME":"STARLINK-3747","NORAD_CAT_ID":"52306","REV_AT_EPOCH":"4015","DECAY_DATE":null,"TIME_SYSTEM":"UTC","MEAN_ANOMALY":"323.9468","SEMIMAJOR_AXIS":"6917.829","EPOCH":"2022-12-31T19:14:59.205696","LAUNCH_DATE":"2022-04-21","PERIAPSIS":"538.260","TLE_LINE1":"1 52306U 22041AX  22365.80207414 -.00004096  00000-0 -23927-3 0  9996","CENTER_NAME":"EARTH","OBJECT_TYPE":"PAYLOAD","CLASSIFICATION_TYPE":"U","EPHEMERIS_TYPE":"0","GP_ID":"221891809","INCLINATION":"53.2152","FILE":"3728081","MEAN_ELEMENT_THEORY":"SGP4"},{"EPHEMERIS_TYPE":"0","CLASSIFICATION_TYPE":"U","INCLINATION":"53.2153","MEAN_ELEMENT_THEORY":"SGP4","FILE":"3728081","GP_ID":"221890569","MEAN_ANOMALY":"334.2495","SEMIMAJOR_AXIS":"6917.805","EPOCH":"2022-12-31T19:34:52.596192","TIME_SYSTEM":"UTC","OBJECT_TYPE":"PAYLOAD","PERIAPSIS":"537.960","TLE_LINE1":"1 52307U 22041AY  22365.81588653  .00002900  00000-0  20014-3 0  9999","LAUNCH_DATE":"2022-04-21","CENTER_NAME":"EARTH","MEAN_MOTION_DOT":"0.00002900","SITE":"AFETR","TLE_LINE2":"2 52307  53.2153 283.9658 0002471  25.8621 334.2495 15.08864737 38805","APOAPSIS":"541.379","NORAD_CAT_ID":"52307","OBJECT_NAME":"STARLINK-3755","DECAY_DATE":null,"REV_AT_EPOCH":"3880","ECCENTRICITY":"0.00024710","REF_FRAME":"TEME","ELEMENT_SET_NO":"999","RA_OF_ASC_NODE":"283.9658","OBJECT_ID":"2022-041AY","MEAN_MOTION":"15.08864737","BSTAR":"0.00020014000000","PERIOD":"95.436","RCS_SIZE":"LARGE","MEAN_MOTION_DDOT":"0.0000000000000","COUNTRY_CODE":"US","ARG_OF_PERICENTER":"25.8621"},{"OBJECT_TYPE":"PAYLOAD","LAUNCH_DATE":"2022-04-21","TLE_LINE1":"1 52308U 22041AZ  22365.46351981  .00009724  00000-0  62754-3 0  9991","PERIAPSIS":"538.149","CENTER_NAME":"EARTH","MEAN_ANOMALY":"316.4735","EPOCH":"2022-12-31T11:07:28.111584","SEMIMAJOR_AXIS":"6917.759","TIME_SYSTEM":"UTC","INCLINATION":"53.2171","FILE":"3728035","MEAN_ELEMENT_THEORY":"SGP4","GP_ID":"221866906","EPHEMERIS_TYPE":"0","CLASSIFICATION_TYPE":"U","PERIOD":"95.435","RCS_SIZE":"LARGE","ARG_OF_PERICENTER":"43.6426","COUNTRY_CODE":"US","MEAN_MOTION_DDOT":"0.0000000000000","RA_OF_ASC_NODE":"275.5360","ELEMENT_SET_NO":"999","OBJECT_ID":"2022-041AZ","MEAN_MOTION":"15.08879817","BSTAR":"0.00062754000000","OBJECT_NAME":"STARLINK-3745","NORAD_CAT_ID":"52308","REV_AT_EPOCH":"4010","DECAY_DATE":null,"ECCENTRICITY":"0.00021320","REF_FRAME":"TEME","MEAN_MOTION_DOT":"0.00009724","APOAPSIS":"541.099","TLE_LINE2":"2 52308  53.2171 275.5360 0002132  43.6426 316.4735 15.08879817 40108","SITE":"AFETR"},{"REF_FRAME":"TEME","ECCENTRICITY":"0.00023510","DECAY_DATE":null,"REV_AT_EPOCH":"4010","NORAD_CAT_ID":"52309","OBJECT_NAME":"STARLINK-3756","APOAPSIS":"541.226","TLE_LINE2":"2 52309  53.2155 275.5243 0002351  44.9184 315.1998 15.08887597 40100","SITE":"AFETR","MEAN_MOTION_DOT":"0.00014702","MEAN_MOTION_DDOT":"0.0000000000000","ARG_OF_PERICENTER":"44.9184","COUNTRY_CODE":"US","RCS_SIZE":"LARGE","PERIOD":"95.435","BSTAR":"0.00093865000000","MEAN_MOTION":"15.08887597","OBJECT_ID":"2022-041BA","ELEMENT_SET_NO":"999","RA_OF_ASC_NODE":"275.5243","GP_ID":"221835847","MEAN_ELEMENT_THEORY":"SGP4","FILE":"3727988","INCLINATION":"53.2155","CLASSIFICATION_TYPE":"U","EPHEMERIS_TYPE":"0","CENTER_NAME":"EARTH","PERIAPSIS":"537.974","TLE_LINE1":"1 52309U 22041BA  22365.46720389  .00014702  00000-0  93865-3 0  9993","LAUNCH_DATE":"2022-04-21","OBJECT_TYPE":"PAYLOAD","TIME_SYSTEM":"UTC","SEMIMAJOR_AXIS":"6917.735","EPOCH":"2022-12-31T11:12:46.416096","MEAN_ANOMALY":"315.1998"}];
